{{Infobox Planet  
| name=747 Winchester (1913 QZ)
| image=
| caption=
| discovery=yes 
| physical_characteristics=yes 
| bgcolour=#FFFFC0
| discoverer=[[乔尔·梅特卡夫|乔尔·梅特卡夫]]
| discovery_site=[[温彻斯特_(马萨诸塞州)|温彻斯特]]
| discovered=1913年3月7日
| mp_name=747
| alt_names=
| mp_category=[[小行星带|主带小行星]]
| epoch=2456400.5 (2013-Apr-18.0) TDB
| semimajor= 3.000903935746142AU
| perihelion=1.978270388861244AU
| aphelion=4.023537482631041AU
| eccentricity=.3407751693426439
| period=1898.788385381101天<br>5.20年
| inclination=18.16396056086362°
| asc_node=130.0982909658764°	
| arg_peri=275.4286879860241°
| mean_anomaly=191.6438438411111°
 | dimensions=
 | mean_radius=85.855千米
 | rotation=9.4146小时
 | spectral_type=PC
 | abs_magnitude=7.69
 | albedo=0.0503
}}
'''小行星747'''（747 Winchester (1913 QZ)），是[[乔尔·梅特卡夫|乔尔·梅特卡夫]]于1913年3月7日在美国[[马萨诸塞州|马萨诸塞州]][[温彻斯特_(马萨诸塞州)|温彻斯特]]发现的[[小行星带|主带小行星]]<ref>{{JPL Small Body|name=747}}</ref>。以[[美国|美国]][[马萨诸塞州|马萨诸塞州]][[温彻斯特_(马萨诸塞州)|温彻斯特]]镇命名。

== 参考资料==
{{Reflist}}

{{Minor Planet Number|[[小行星746|小行星746]]|[[小行星748|小行星748]]}}
{{beltasteroid-stub}}

[[Category:小行星带天体|Category:小行星带天体]]
[[Category:1913年发现的小行星|Category:1913年发现的小行星]]
[[Category:以地名命名的小行星|Category:以地名命名的小行星]]